X,Y,Record_ID,Store_Name,Store_Street_Address,Additonal_Address,Zip_Code,Zip4,Proposed_new_category,Latitude,Longitude,ObjectId,NOTES,Store_Type
-7950574,5139775,828850,Borrellis Bakery,805 Charles St,,2904,1302,Bakery,41.85829,-71.4212,57940,,Specialty Store
-7953055,5135869,1489314,El Quiche Bakery Store Inc,1076 Chalkstone Ave,,2908,4551,Bakery,41.83215,-71.4435,201204,,Grocery Store
-7950074,5131104,1033726,Emely Party Store And Bakery Llc,880 Broad St,,2907,1724,Bakery,41.80025,-71.4167,230667,,Convenience Store
-7952585,5138469,890768,LaSalle Bakery Inc,685 Admiral St,,2908,1402,Bakery,41.84955,-71.4393,240778,,Specialty Store
-7952692,5134055,576223,MAYA BAKERY,113 Valley St,,2909,2441,Bakery,41.82,-71.4402,37591,,Other
-7953940,5135901,440181,SAL'S BAKERY,1288 Chalkstone Ave,,2908,3900,Bakery,41.83236,-71.4515,15117,,Grocery Store
-7947334,5134429,451897,SILVER STAR BAKERY,150 Ives St,,2906,3813,Bakery,41.82251,-71.3921,10597,,Other
-7953494,5133114,1048731,280 Llc,280 Plainfield St,,2909,3704,Convenience Store,41.81371,-71.4474,214736,- has the types of items you would find at a gas station,Convenience Store
-7950439,5133354,623040,7 Eleven - 33406A,270 Broad St,,2903,4032,Convenience Store,41.81531,-71.42,42711,- our exampe of a convenience store,Convenience Store
-7953152,5133827,1113622,7 Eleven 33426A,65 Manton Ave,,2909,3307,Convenience Store,41.81848,-71.4444,225767,- our exampe of a convenience store,Convenience Store
-7951154,5136338,1620956,7-Eleven 29112,460 Smith St,,2908,4307,Convenience Store,41.83529,-71.4264,257964,- our exampe of a convenience store,Convenience Store
-7952152,5134636,1614906,7-Eleven 33338 C,548 Atwells Ave,,2909,2414,Convenience Store,41.8239,-71.4354,253287,- our exampe of a convenience store,Convenience Store
-7949516,5134661,388777,7-ELEVEN 33397-A,10 Dorrance St,,2903,2018,Convenience Store,41.82406,-71.4117,20327,- our exampe of a convenience store,Convenience Store
-7952549,5131669,1133031,7-eleven 33413C,775 Cranston St,,2907,3007,Convenience Store,41.80403,-71.439,206465,- our exampe of a convenience store,Convenience Store
-7947746,5134148,1174824,71 Milk Store LLC,71 Hope St,,2906,2001,Convenience Store,41.82063,-71.3958,225984,,Convenience Store
-7950920,5132401,1626387,A Z Mini Mart Corp,150 Elmwood Ave,,2907,4104,Convenience Store,41.80893,-71.4243,255917,,Convenience Store
-7953240,5136914,1645879,Academy Market,524 Academy Ave,,2908,2723,Convenience Store,41.83914,-71.4452,79322,,Convenience Store
-7953301,5137500,1428187,Aj Pharmacy,1017 Smith St,,2908,2747,Convenience Store,41.84306,-71.4457,158744,,Convenience Store
-7951135,5131301,1632067,Alia Market,384 Elmwood Ave,,2907,1641,Convenience Store,41.80157,-71.4263,99060,,Other
-7950237,5131237,1632573,Broad Mart LLC,837 Broad St,,2907,,Convenience Store,41.80114,-71.4182,264033,,Convenience Store
-7950263,5135941,1066964,Capital Gulf,201 Smith St,,2908,4930,Convenience Store,41.83263,-71.4184,222318,,Convenience Store
-7952500,5138354,919491,College Convenience Mart,664 Admiral St,,2908,1406,Convenience Store,41.84878,-71.4385,68983,,Convenience Store
-7948948,5129765,378848,CUMBERLAND FARMS 1210,1297 Broad St,,2905,2935,Convenience Store,41.79128,-71.4066,16489,,Convenience Store
-7947707,5138117,367245,CUMBERLAND FARMS 1280,751 Hope St,,2906,3637,Convenience Store,41.8472,-71.3955,25790,,Convenience Store
-7951518,5139118,1277927,Cumberland Farms 1296,744 Branch Ave,,2904,1702,Convenience Store,41.85389,-71.4297,126877,,Convenience Store
-7950404,5138612,1436672,Daily Stop Mart,549 Charles St,,2904,2227,Convenience Store,41.85051,-71.4197,172453,,Grocery Store
-7947162,5136217,1273893,Eastside Mart,422 Lloyd Ave,,2906,4548,Convenience Store,41.83448,-71.3906,122109,,Convenience Store
-7950750,5132949,1073590,Elmwood Avenue Shell,5 Elmwood Ave,,2907,2416,Convenience Store,41.8126,-71.4228,240230,,Convenience Store
-7953176,5132201,1293697,Familia Food Market Inc,230 Union Ave,,2909,3030,Convenience Store,41.80759,-71.4446,229321,,Grocery Store
-7951514,5129518,1357645,Gulf Express,255 Reservoir Ave,,2907,3402,Convenience Store,41.78962,-71.4297,166864,,Convenience Store
-7954823,5133916,1107311,Hartford Mart,469 Hartford Ave,,2909,5132,Convenience Store,41.81908,-71.4594,144727,,
-7955089,5132714,1066542,J & M Convenience Store,718 Plainfield St,,2909,5310,Convenience Store,41.81103,-71.4618,234981,,Convenience Store
-7954305,5134797,1620328,Joe's Kwik Marts 5012,442 Manton Ave,,2909,5044,Convenience Store,41.82497,-71.4547,259234,,Convenience Store
-7953815,5134542,1575882,M & D Smoke And Food Market,315 Manton Ave,,2909,3654,Convenience Store,41.82327,-71.4503,169598,,Convenience Store
-7951881,5136680,985506,Milanos Pizza/Olives Deli,659 Smith St,,2908,4352,Convenience Store,41.83758,-71.433,136373,,Convenience Store
-7951194,5131247,1548770,Mobil,389 Elmwood Ave,,2907,1727,Convenience Store,41.8012,-71.4268,203856,,Convenience Store
-7951253,5135265,1527726,Neon Marketplace 288,288 Kinsley Ave,,2903,1017,Convenience Store,41.8281,-71.4273,139590,,Convenience Store
-7948247,5135181,1107321,New Metro Mart,221 Thayer St,,2906,1210,Convenience Store,41.82755,-71.4003,221075,,Convenience Store
-7950526,5132302,1425832,New York Mini Market,583 Broad St,,2907,1404,Convenience Store,41.80827,-71.4208,179326,address is different store than this,Convenience Store
-7951304,5137242,371613,PC MART & GAS,408 Douglas Ave,,2908,2519,Convenience Store,41.84134,-71.4278,14526,,Convenience Store
-7949458,5139597,1438129,Quality Fuel And Mart,414 Smithfield Ave,,2904,1578,Convenience Store,41.8571,-71.4112,178169,,Convenience Store
-7952065,5136403,1518551,Rusty Lantern Market 4038,388 Pleasant Valley Pkwy,,2908,,Convenience Store,41.83572,-71.4346,187515,,Convenience Store
-7951206,5137198,1569209,Sam's Food Mart,391 Douglas Ave,,2908,2511,Convenience Store,41.84104,-71.4269,246607,,Convenience Store
-7950843,5137659,1190096,Sam's Market,222 Admiral St,,2908,2601,Convenience Store,41.84413,-71.4236,216179,,Convenience Store
-7953098,5133601,1534866,Sams Food Store,28 Hartford Ave,,2909,3359,Convenience Store,41.81696,-71.4439,233492,,Convenience Store
-7951971,5138541,1106652,Sams Tobacco and Convenience LLC,776 Douglas Ave,,2908,1603,Convenience Store,41.85003,-71.4338,95337,,Convenience Store
-7950599,5129382,258339,SAVERS MART II 2,871 Elmwood Ave,,2907,3654,Convenience Store,41.78871,-71.4214,5224,,Convenience Store
-7948524,5138486,426569,Shell Gas Station,1075 N Main St,,2904,5718,Convenience Store,41.84966,-71.4028,29295,,Convenience Store
-7950942,5138847,420082,Shell Gas Station,598 Branch Ave,,2904,2204,Convenience Store,41.85208,-71.4245,27484,,Convenience Store
-7950717,5136601,1512647,Smith Hill Market,194 Douglas Ave,,2908,3743,Convenience Store,41.83705,-71.4225,176489,no info online - have to call or visit,Grocery Store
-7949482,5139696,940233,Speedway 2824,440 Smithfield Ave,,2904,1546,Convenience Store,41.85776,-71.4114,79009,,Convenience Store
-7948274,5139017,940230,Speedway 2831,1215 N Main St,,2904,1825,Convenience Store,41.85321,-71.4006,79008,,Convenience Store
-7953116,5135095,861855,St Francis D Assisi Convenience,84 Academy Ave,,2908,5329,Convenience Store,41.82697,-71.4441,226452,,Convenience Store
-7954661,5134938,1226080,Station One Convenience Store,522 Manton Ave,,2909,5014,Convenience Store,41.82592,-71.4579,231586,,Grocery Store
-7952514,5135878,1408004,Supreme Gas,168 River Ave,,2908,4732,Convenience Store,41.83221,-71.4387,181627,,Convenience Store
-7951886,5132525,1580927,Tenares Super Market,484 Cranston St,,2907,2745,Convenience Store,41.80976,-71.433,233052,same name as the other one but address is wrong,Grocery Store
-7951981,5134280,1628676,The New Placita Market,165 Almy St,,2909,1531,Convenience Store,41.82151,-71.4339,263533,,Convenience Store
-7950425,5132155,1612006,The Stop Bodega Llc,620 Broad St,Unit 2,2907,1456,Convenience Store,41.80728,-71.4199,258316,,Grocery Store
-7948866,5130970,418409,Thurbers Ave Services Inc/Thurbers Ave Food Mart,1025 Eddy St,,2905,1525,Convenience Store,41.79935,-71.4059,16109,,Convenience Store
-7947859,5129701,1399019,Tofy Mart,905 Narragansett Blvd,,2905,4407,Convenience Store,41.79085,-71.3968,151201,,Convenience Store
-7953021,5132215,1566660,Union Ave Shell,200 Union Ave,,2909,3028,Convenience Store,41.80768,-71.4432,147726,,Convenience Store
-7951341,5132508,1537271,Yunas Market Llc,248 Dexter St,,2907,2726,Convenience Store,41.80965,-71.4281,191848,,Grocery Store
-7954763,5133849,1229999,New Lanes,451 Hartford Ave,,2909,5132,Convenience Store,41.81863,-71.4589,226086, need to call or visit,Convenience Store
-7953041,5134854,1203505,Arm Market,29 Academy Avenue,,2908,,Convenience Store,41.82535,-71.4434,131837,,Convenience Store
-7950398,5132955,1549845,Deli Pine Food Market Inc.,465 Pine St,,2907,1345,Convenience Store,41.81264,-71.4196,205826,,Convenience Store
-7954183,5134888,1449474,Kh Mart,1081 Atwells Ave,,2909,4115,Convenience Store,41.82558,-71.4536,166236,,Convenience Store
-7951989,5132370,1487132,Central Market,536 Cranston St,,2907,2749,Convenience Store,41.80872,-71.4339,196602,,Grocery Store
-7952280,5133114,1594158,City Market,75 Messer St,,2909,2009,Convenience Store,41.81371,-71.4365,249342,,Grocery Store
-7951429,5132176,1385800,Dexter Mini Market,331 Dexter St,,2907,2759,Convenience Store,41.80742,-71.4289,156911,,Grocery Store
-7952575,5134681,1409385,Mobil Mart,269 Valley St,,2909,2445,Convenience Store,41.82419,-71.4392,171723,,Convenience Store
-7953785,5135971,386361,A & B Convenience And Deli,1245 Chalkstone Ave,,2908,3903,Corner Store,41.83283,-71.4501,10032,,Grocery Store
-7953721,5134798,936704,Anthony Grocery Store,964A Atwells Ave,,2909,3104,Corner Store,41.82498,-71.4495,78947,,Grocery Store
-7953955,5134608,1235118,Br Market Inc,352 Manton Ave,,2909,3626,Corner Store,41.8237,-71.4516,100256,,Grocery Store
-7950358,5131567,1494173,Carolyn Market Llc,757 Broad St,,2907,1602,Corner Store,41.80335,-71.4193,190026,,Grocery Store
-7953054,5134746,1561281,Casa Mexico ,802 Atwells Ave,,2909,2507,Corner Store,41.82463,-71.4435,243491,,Grocery Store
-7948524,5129519,1151905,Charles Variety,1308 Eddy St,,2905,2820,Corner Store,41.78963,-71.4028,235645,,Grocery Store
-7952055,5132289,1560697,Cranston Family Market,560 Cranston St,,2907,2809,Corner Store,41.80818,-71.4345,243765,,Grocery Store
-7946950,5135525,442976,CVS PHARMACY 1294,481 Angell St,,2906,4407,Corner Store,41.82984,-71.3887,15434,,Other
-7950004,5135017,962641,CVS Pharmacy 2049,39 Providence Pl,PROV MALL #1010,2903,1747,Corner Store,41.82645,-71.4161,93684,,Other
-7955832,5136175,460786,CVS PHARMACY 2417,935 Manton Ave,,2909,5628,Corner Store,41.8342,-71.4685,30384,,Other
-7949817,5130865,615078,CVS PHARMACY 4796,960 Broad St,,2905,1822,Corner Store,41.79865,-71.4144,41928,,Other
-7947612,5138390,421319,CVS PHARMACY 729,799 Hope St,,2906,3635,Corner Store,41.84902,-71.3946,27614,,Other
-7948281,5135536,962593,CVS Pharmacy 827,291 Thayer St,,2906,1524,Corner Store,41.82992,-71.4006,89853,,Other
-7951489,5137917,522935,CVS PHARMACY 856,400 Admiral St,,2908,2416,Corner Store,41.84585,-71.4294,24965,,Other
-7953829,5132907,527375,CVS PHARMACY 994,131 Webster Ave,,2909,2931,Corner Store,41.81232,-71.4505,37902,,Other
-7950757,5134288,1505163,Daily Stop Mart 3,163 Broadway,,2903,3013,Corner Store,41.82156,-71.4229,188194,- they have milk and some canned goods more than what a gas station/convenince store has,Convenience Store
-7955190,5133920,1298868,DOLLAR GENERAL 19286,550 Hartford Ave,,2909,5800,Corner Store,41.8191,-71.4627,91322,,Other
-7951287,5138897,1605647,Dollar General 30670,650-700 Branch Ave,,2904,,Corner Store,41.85241,-71.4276,250221,,Other
-7955793,5134095,775006,DOLLAR TREE 1733,377 Killingly St,,2909,5900,Corner Store,41.82027,-71.4681,53123,,Other
-7953167,5134103,1044151,El Encanto Market,72 Appleton St,,2909,2724,Corner Store,41.82033,-71.4445,235772,,Grocery Store
-7953529,5134168,678605,El Primo Fruits & Vegetables,212 Manton Ave,,2909,3310,Corner Store,41.82076,-71.4478,51589,,Grocery Store
-7953111,5135273,1459966,El Salvador Market,128 Academy Ave,,2908,4523,Corner Store,41.82816,-71.444,158439,,Grocery Store
-7952519,5134992,1271702,Family Dollar 11705,332 Valley St,,2908,5617,Corner Store,41.82628,-71.4387,122678,,Other
-7953187,5133480,1303510,Family Dollar 11732,48 Plainfield St,,2909,3407,Corner Store,41.81615,-71.4447,145682,,Other
-7951291,5133096,1263014,Family Dollar 11780,250 Cranston St,,2907,2407,Corner Store,41.81358,-71.4277,156245,,Other
-7952753,5139343,1303075,Family Dollar 11977,1039 Branch Ave,,2904,1004,Corner Store,41.8554,-71.4408,145987,,Other
-7950428,5131755,1394038,Family Dollar 12469,711 Broad Street,,2907,,Corner Store,41.8046,-71.4199,140983,,Other
-7948869,5129883,868506,Family Dollar 2190,1280 Broad St,,2905,2933,Corner Store,41.79207,-71.4059,93032,,Other
-7952890,5135866,868502,Family Dollar 2868,1030 Chalkstone Ave,,2908,4550,Corner Store,41.83213,-71.442,93026,,Other
-7948490,5128997,868509,Family Dollar 6864,1515 Broad St,,2905,2835,Corner Store,41.78613,-71.4025,93141,,Other
-7951462,5136619,931775,Family Dollar 8177,541 Smith St,,2908,4350,Corner Store,41.83717,-71.4292,72260,,Other
-7955695,5136175,1030598,Family Dollar 8896,921 Manton Ave,,2909,5627,Corner Store,41.8342,-71.4672,118972,,Other
-7954228,5132730,1120722,Family Dollar Store 9082,151 Pocasset Ave,,2909,,Corner Store,41.81113,-71.454,110348,,Other
-7950517,5139146,1130601,Foodland Farms,638 Charles St,,2904,1351,Corner Store,41.85408,-71.4207,240754,,Grocery Store
-7951173,5133145,1382594,Garcia Mini Market Inc,208 Cranston St,,2907,2308,Corner Store,41.81391,-71.4266,155968,,Grocery Store
-7951814,5132636,794378,Gemmas Market,458 Cranston St,,2907,2705,Corner Store,41.8105,-71.4324,64877,small but has some produce bread probably milk and stuff too,Grocery Store
-7948980,5131465,1379014,Happy Mart,927 Eddy St,,2905,4730,Corner Store,41.80266,-71.4069,152042,bigger than convenience store (has canned stuff) but don't think it has any produce,Grocery Store
-7952551,5132447,1452712,Jesiah Mini Market,99 Union Ave,,2909,2246,Corner Store,41.80924,-71.439,172751,no info online - have to visit,Grocery Store
-7950555,5132470,1628673,Kb Mart,545 Broad St,,2907,1402,Corner Store,41.80939,-71.4211,410,- it is bigger than a convenience store and has more canned goods/dairy,Convenience Store
-7952705,5135860,1633643,La Chapincita Market Llc,996 Chalkstone Ave,,2908,4237,Corner Store,41.83209,-71.4404,224986,check about produce,Grocery Store
-7953508,5132110,1203488,La Esquina Market 1,274 Webster Ave,,2909,3830,Corner Store,41.80698,-71.4476,131829,good amount of produce,Grocery Store
-7949301,5132050,1610155,La Familia Market Llc,272 Public St,,2905,2218,Corner Store,41.80658,-71.4098,256688,,Grocery Store
-7954298,5132526,1289680,La Familia Meat Market LLC,196 Pocasset Ave,,2909,4604,Corner Store,41.80977,-71.4547,74191,,Grocery Store
-7949345,5130353,1431445,La Fortuna Market,692 Prairie Ave,,2905,1609,Corner Store,41.79522,-71.4102,166204,no info online - call or visit,Grocery Store
-7950818,5132770,1487109,La Gigante Meat Market NO,49 Elmwood Ave,,2907,2401,Corner Store,41.8114,-71.4234,196592,has good amount of fruit/produce lots of meat and other corner store stuff,Grocery Store
-7952442,5132168,1501661,La Ideal Meat Market NO,227 Waldo St,,2909,2320,Corner Store,41.80737,-71.438,190682,no info online - call or visit,Grocery Store
-7951017,5131796,1416381,La Mia Supermarket Llc,290 Elmwood Ave,,2907,1524,Corner Store,41.80488,-71.4252,183206,should call or visit,Grocery Store
-7953148,5135889,1571095,La Poblanita Market,273 Academy Ave,,2908,4144,Corner Store,41.83228,-71.4443,165476,meat and produce options,Grocery Store
-7953686,5134842,1514681,La Pulperia 504,955 Atwells Ave,,2909,3151,Corner Store,41.82527,-71.4492,183447,,Other
-7949989,5130907,1123985,Mi Quisqueya Supermarket,933 Broad St,,2907,1925,Corner Store,41.79892,-71.416,239385,,Supermarket
-7953607,5134830,1404835,Miami Mart,935 Atwells Ave,,2909,3121,Corner Store,41.8252,-71.4485,175455,they have more canned goods and produce than a convenience store,Convenience Store
-7953311,5132789,1391991,Mini Meat Market Grocery Llc,58 Sterling Ave,,2909,3530,Corner Store,41.81153,-71.4458,164117,no info - have to visit or call,Grocery Store
-7952730,5134062,1492387,Mom Vonyee Variety Shop,114 Valley St,,2909,2408,Corner Store,41.82005,-71.4406,186568,,Grocery Store
-7949037,5129937,1190287,New Stop Food Market,1258 Broad St,,2905,2932,Corner Store,41.79243,-71.4074,237372,address is different store no info on this one,Grocery Store
-7954725,5133869,702589,PANADERIA EL QUETZAL,445 Hartford Ave,,2909,5131,Corner Store,41.81876,-71.4585,41637,lots of prepared food and then other stuff byut minimal supply,Grocery Store
-7947820,5129767,1635940,Portuguese & Latino Market LLC,892-896 Allens,,2905,,Corner Store,41.79129,-71.3965,238,could maybe be grocery - lots of produce but unclear about refrigerated section,Convenience Store
-7950140,5134245,1187936,Regency Plaza Market,3 Regency Plz,Ste 5,2903,3120,Corner Store,41.82128,-71.4173,140821,,Convenience Store
-7951506,5133631,1601598,Restaurant Superstore 2,1229 Westminster St,,2909,1410,Corner Store,41.81717,-71.4296,250179,no produce and lots of options but not a lot from our WIC list,Grocery Store
-7954556,5133779,837607,Rodriguez Meat Market,400 Hartford Ave,,2909,5115,Corner Store,41.81816,-71.457,31872,,Grocery Store
-7951798,5131507,1632445,Rodriguez Mini Market LLC NO,680 Potters Ave,,2907,3047,Corner Store,41.80294,-71.4322,177297,canned stuff but no produce,Grocery Store
-7951001,5136326,1594232,Smith Hill Stop And Go,544 Chalkstone Ave,,2908,3618,Corner Store,41.83521,-71.4251,56292,,Convenience Store
-7951489,5129612,647849,SUNNY MARKET PLACE,243 Reservoir Ave,,2907,3402,Corner Store,41.79025,-71.4294,46153,,Grocery Store
-7951439,5132992,1405037,Taste Of Africa Market,306 Cranston St,,2907,2408,Corner Store,41.81289,-71.429,175594,,Grocery Store
-7950468,5138997,539320,TOOFS MARKET,611 Charles St,,2904,1345,Corner Store,41.85308,-71.4203,19265,,Grocery Store
-7953119,5136005,441402,Walgreens 03204,295 Academy Ave,,2908,4148,Corner Store,41.83306,-71.4441,15960,,Other
-7951332,5137876,341825,Walgreens 03703,354 Admiral St,,2908,2537,Corner Store,41.84558,-71.428,11669,,Other
-7951189,5130709,419003,WALGREENS 04145,533 Elmwood Ave,,2907,1758,Corner Store,41.7976,-71.4267,16610,,Other
-7951432,5134668,849689,Walgreens 10099,333 Atwells Ave,,2903,1442,Corner Store,41.82411,-71.4289,65392,,Other
-7948502,5138782,842909,Walgreens 10256,1140 N Main St,,2904,1819,Corner Store,41.85164,-71.4026,35358,,Other
-7953646,5133055,867271,Walgreens 11147,1 Pocasset Ave,,2909,2907,Corner Store,41.81331,-71.4488,93646,,Other
-7949842,5131828,1156767,Walgreens 15538,335 Prairie Ave,,2905,1924,Corner Store,41.80509,-71.4147,108003,,Other
-7946719,5135015,366597,Walgreens 19900,135 Pitman St,,2906,5112,Corner Store,41.82643,-71.3866,24286,,Other
-7950578,5132915,1626208,West African Super Store,404 Broad St,,2907,2240,Corner Store,41.81237,-71.4213,258315,,Grocery Store
-7951775,5133188,1638512,Armory Park Farmers Market,Parade St,Dexter Training Ground,2909,,Farmers Market,41.8142,-71.432,1576,,Farmers and Markets
-7950367,5131335,1277195,Broad St Farmers Market,807 Broad St,,2907,1676,Farmers Market,41.80179,-71.4194,226856,,Farmers and Markets
-7951954,5135106,1279039,Farm Fresh Providence Farmers Market,10 Sims Ave,,2909,1165,Farmers Market,41.82704,-71.4336,227737,,Farmers and Markets
-7951945,5135083,1595889,Harvest Kitchen,10 Sims Ave,Apt 104,2909,1165,Farmers Market,41.82689,-71.4335,249341,,Other
-7947336,5139260,1279037,Hope St Farmers Market,1015 Hope St,Lippitt Park,2906,,Farmers Market,41.85484,-71.3921,224197,,Farmers and Markets
-7955157,5132566,1075096,Neutaconkanut Farmers Market/Farm Fresh RI,675 Plainfield St,,2909,5312,Farmers Market,41.81082,-71.46512,222147,,Farmers and Markets
-7948999,5129877,1405797,Pop-up Farmer Market,1197 Broad St,,2905,2945,Farmers Market,41.79340,-71.41169,177995,,Farmers and Markets
-7950119,5138252,1314313,Quaintly Farm,58 Chatham St,,2904,2510,Farmers Market,41.8481,-71.4171,128299,,Farmers and Markets
-7951105,5131819,1441910,Sankofa World Market,275 Elmwood Ave,,2907,1597,Farmers Market,41.80504,-71.426,95644,,Farmers and Markets
-7950150,5131124,1238966,America's Food Basket,863 Broad St,,2907,1725,Grocery Store,41.80038,-71.4174,218256,,Super Store
-7949825,5130741,1587216,B & B El Bombazo Market Llc,981 Broad St,,2905,1704,Grocery Store,41.79782,-71.4145,35390,,Grocery Store
-7952465,5132480,1080278,Baron Market LLC,77 Union Ave,,2909,2220,Grocery Store,41.80946,-71.4382,222962,,Grocery Store
-7952062,5131679,1520194,Bayon Market Inc,759 Potters Ave,,2907,3065,Grocery Store,41.8041,-71.4346,193953,,Grocery Store
-7950445,5139049,1490738,Caribbean Supermarket NO,615 Charles St,,2904,1345,Grocery Store,41.85343,-71.4201,182128,,Grocery Store
-7950427,5138734,1541848,Chalkstone Express Market,567 Charles St,,2904,2281,Grocery Store,41.85132,-71.4199,205974,,Grocery Store
-7952981,5135859,1088169,Chalkstone Supermarket Inc,1050 Chalkstone Ave,,2908,4538,Grocery Store,41.83208,-71.4428,111742,,Super Store
-7954412,5132294,1556333,Chapines Market NO,248 Pocasset Ave,,2909,4724,Grocery Store,41.80821,-71.4557,219477,,Grocery Store
-7950403,5136871,1571887,Dailystop Supermarket,85 Whipple St,,2908,3260,Grocery Store,41.83886,-71.4197,137391,,Grocery Store
-7950577,5129276,1605477,Dr Union Supermarket Corp,895 Elmwood Ave,,2907,3616,Grocery Store,41.788,-71.4212,252939,,Super Store
-7951510,5137994,1307094,Elias Market,600 Douglas Ave,,2908,2408,Grocery Store,41.84637,-71.4296,149932,,Grocery Store
-7951072,5131410,1497750,Elmwood Supermarket Inc no,366 Elmwood Ave,,2907,1517,Grocery Store,41.80229,-71.4257,183300,,Grocery Store
-7949966,5129831,1322391,Good Fortune Supermarket Rhode Island Corp,101 Cadillac Dr,,2907,2123,Grocery Store,41.79172,-71.4158,137653,,Super Store
-7948506,5129418,1504800,Liberato Meat Market Llc,1338 Eddy St,,2905,2821,Grocery Store,41.78896,-71.4026,197872,meat produce canned stuff big bags of rice etc.,Grocery Store
-7953799,5134495,1597430,Manton Meat Market LLC,309 Manton Ave,,2909,3612,Grocery Store,41.82295,-71.4502,249343,,Grocery Store
-7953517,5132706,885096,Mateo Market LLC,3 Priscilla Ave,,2909,3507,Grocery Store,41.81097,-71.4477,78658,no info but looks like Corner store,Grocery Store
-7952482,5131735,1308679,New Sky Market Inc,744 Cranston St,,2907,3059,Grocery Store,41.80447,-71.4384,150693,,Grocery Store
-7952394,5131850,1367691,Nueva Era Supermarket,701 Cranston St,,2907,3058,Grocery Store,41.80524,-71.4376,141587,,Grocery Store
-7954742,5132945,869842,Plainfield Meat Market,600 Plainfield St,,2909,4630,Grocery Store,41.81258,-71.4587,227699,lots of meat and produce and beans,Grocery Store
-7953721,5132914,1284126,Pocasset Meat Market Llc,50 Pocasset Ave,,2909,2962,Grocery Store,41.81236,-71.4495,236554,meat market with lots of produce,Grocery Store
-7949685,5130589,1546196,Rosario Meat Market LLC,1035 Broad St,,2905,1739,Grocery Store,41.7968,-71.4132,200749,,Grocery Store
-7953062,5135186,1538323,Serie 034 Food Market Llc,103 Academy Ave,,2908,4539,Grocery Store,41.82758,-71.4436,195279,call or visit to see about produce and milk and meat and stuff -- otherwise just corner,Grocery Store
-7948212,5133924,1507989,Seymour Foods,109 Wickenden St,,2903,4364,Grocery Store,41.81913,-71.4,195614,,Grocery Store
-7950716,5137306,1633555,Supreme Food,288 Chad Brown St,,2908,3112,Grocery Store,41.84176,-71.4225,1677,,Supermarket
-7953051,5135896,1203285,Tienda Y Taqueria Puebla,1070A Chalkstone Ave,,2908,4551,Grocery Store,41.83233,-71.4435,218284,,Grocery Store
-7954945,5133904,1585263,Tikal Meat Market,501 Hartford Ave,,2909,5132,Grocery Store,41.819,-71.4605,183311,ask if they take EBT,Grocery Store
-7954613,5133824,1295026,Two Brothers Meat Market LLC/La Gran Via Meat Mkt,415 Hartford Ave,,2909,5130,Grocery Store,41.81846,-71.4575,241332,,Super Store
-7950904,5133485,1364433,Urban Greens Food Co-op,93 Cranston St,,2907,2306,Grocery Store,41.81619,-71.4242,159300,,Supermarket
-7951065,5131542,1560755,Elmwood Food Market,342 Elmwood Ave,,2907,1534,Grocery Store,41.80318,-71.4256,245847,ask if they take EBT name change,Grocery Store
-7953578,5134209,1597347,Advance Market LLC,228 Manton Ave,,2909,3332,Meat Market,41.82103,-71.4482,168977,,Grocery Store
-7950403,5131902,1364704,AJ Food Market LLC,676 Broad St,,2907,1466,Meat Market,41.80559,-71.4197,159932,,Super Store
-7951205,5134654,409569,Antonelli Poultry Inc,62 Depasquale Ave,,2903,,Meat Market,41.82402,-71.4269,22138,,Specialty Store
-7952184,5132743,1537362,Candy Meat Market 01,153 Messer St,,2909,1743,Meat Market,41.81122,-71.4357,191883,,Grocery Store
-7947056,5134401,327270,CENTRAL MEAT MARKET,113 Gano St,,2906,3822,Meat Market,41.82232,-71.3896,17797,,Grocery Store
-7954464,5132266,1628338,El Toro Meat Market,261 Pocasset Ave,,2909,4722,Meat Market,41.80803,-71.4562,263534,check to see if they take EBT,Grocery Store
-7948785,5129545,1432282,Gustoso Meat Market,1361 Broad St,,2905,2831,Meat Market,41.78981,-71.4052,169676,,Other
-7951702,5133584,325397,JOES MEAT MARKET,1337 Westminster St,,2909,1412,Meat Market,41.81685,-71.4314,13467,,Supermarket
-7950547,5133212,227659,MEKONG MARKET,314 Broad St,,2907,2238,Meat Market,41.81436,-71.421,5784,mostly seafood but kind of good produce,Grocery Store
-7951489,5129612,873245,Pacific Seafood Market,247 Reservoir Ave,,2907,3402,Meat Market,41.79025,-71.4294,239753,,Specialty Store
-7953579,5132231,1507264,Webster Meat Market,249 Webster Ave,,2909,3821,Meat Market,41.80779,-71.4482,195218,,Grocery Store
-7951422,5136508,874716,ALDI 61058 61058,539 Smith St,,2908,4350,Superstore,41.83643,-71.4288,53978,,Supermarket
-7952430,5134931,847848,PriceRite of Providence 371,325 Valley St,,2908,5612,Superstore,41.82587,-71.4379,57442,,Super Store
-7955548,5135839,235526,Stop & Shop 722,850 Manton Ave,Ste 1,2909,5655,Superstore,41.83195,-71.4659,3791,,Supermarket
-7949559,5137855,249209,Stop & Shop 725,333 W River St,,2904,2610,Superstore,41.84544,-71.4121,6535,,Supermarket
-7948597,5134119,1521302,TRADER JOE'S PROVIDENCE 572,425 S Main St,,2903,2914,Superstore,41.82044,-71.4035,111459,,Supermarket
-7950795,5129414,971019,V Mart LLC,176 Narragansett Ave,,2907,3367,Superstore,41.78893,-71.4232,242427,,Other
-7950000,5137874,809462,Walmart 3301,51 Silver Spring St,,2904,2557,Superstore,41.84557,-71.4161,49201,,Super Store
-7946688,5135213,573128,Whole Foods Market 10014,261 Waterman St,,2906,5210,Superstore,41.82776,-71.3863,33068,,Super Store
-7949128,5136586,330607,Whole Foods Market 10111,601 N Main St,,2904,5755,Superstore,41.83695,-71.4082,17874,,Super Store